[
  {
    "OBJECT_NAME": "STARLINK-5161",
    "OBJECT_ID": "22141G",
    "EPOCH": "2025-11-11T01:02:23.062272",
    "MEAN_MOTION": 15.08840074,
    "ECCENTRICITY": 0.0001652,
    "INCLINATION": 53.214,
    "RA_OF_ASC_NODE": 176.9157,
    "ARG_OF_PERICENTER": 86.5182,
    "MEAN_ANOMALY": 273.6,
    "EPHEMERIS_TYPE": 0,
    "CLASSIFICATION_TYPE": "U",
    "NORAD_CAT_ID": 54163,
    "ELEMENT_SET_NO": 999,
    "REV_AT_EPOCH": 16794,
    "BSTAR": 5.3357000000000004e-06,
    "MEAN_MOTION_DOT": -2.03e-06,
    "MEAN_MOTION_DDOT": 0.0,
    "TLE_LINE1": "1 54163U 22141G   25315.04332248 -.00000203  00000+0  53357-5 0  9994",
    "TLE_LINE2": "2 54163  53.2140 176.9157 0001652  86.5182 273.6000 15.08840074167948",
    "COMMENT": "Grouped by shell and plane from TLE"
  },
  {
    "OBJECT_NAME": "STARLINK-5280",
    "OBJECT_ID": "22141K",
    "EPOCH": "2025-11-11T00:57:04.274784",
    "MEAN_MOTION": 15.08841291,
    "ECCENTRICITY": 0.0001569,
    "INCLINATION": 53.2158,
    "RA_OF_ASC_NODE": 176.891,
    "ARG_OF_PERICENTER": 93.9592,
    "MEAN_ANOMALY": 266.1579,
    "EPHEMERIS_TYPE": 0,
    "CLASSIFICATION_TYPE": "U",
    "NORAD_CAT_ID": 54166,
    "ELEMENT_SET_NO": 999,
    "REV_AT_EPOCH": 16794,
    "BSTAR": 0.00010094,
    "MEAN_MOTION_DOT": 1.319e-05,
    "MEAN_MOTION_DDOT": 0.0,
    "TLE_LINE1": "1 54166U 22141K   25315.03963281  .00001319  00000+0  10094-3 0  9990",
    "TLE_LINE2": "2 54166  53.2158 176.8910 0001569  93.9592 266.1579 15.08841291167940",
    "COMMENT": "Grouped by shell and plane from TLE"
  },
  {
    "OBJECT_NAME": "STARLINK-5245",
    "OBJECT_ID": "22141M",
    "EPOCH": "2025-11-11T00:51:45.770688",
    "MEAN_MOTION": 15.08842705,
    "ECCENTRICITY": 0.0001622,
    "INCLINATION": 53.2156,
    "RA_OF_ASC_NODE": 176.8699,
    "ARG_OF_PERICENTER": 86.1848,
    "MEAN_ANOMALY": 273.933,
    "EPHEMERIS_TYPE": 0,
    "CLASSIFICATION_TYPE": "U",
    "NORAD_CAT_ID": 54168,
    "ELEMENT_SET_NO": 999,
    "REV_AT_EPOCH": 16794,
    "BSTAR": 7.1111e-05,
    "MEAN_MOTION_DOT": 8.44e-06,
    "MEAN_MOTION_DDOT": 0.0,
    "TLE_LINE1": "1 54168U 22141M   25315.03594642  .00000844  00000+0  71111-4 0  9993",
    "TLE_LINE2": "2 54168  53.2156 176.8699 0001622  86.1848 273.9330 15.08842705167944",
    "COMMENT": "Grouped by shell and plane from TLE"
  },
  {
    "OBJECT_NAME": "STARLINK-5282",
    "OBJECT_ID": "22141N",
    "EPOCH": "2025-11-10T22:02:06.780192",
    "MEAN_MOTION": 15.08826856,
    "ECCENTRICITY": 0.0001136,
    "INCLINATION": 53.2176,
    "RA_OF_ASC_NODE": 176.8541,
    "ARG_OF_PERICENTER": 86.6729,
    "MEAN_ANOMALY": 273.4393,
    "EPHEMERIS_TYPE": 0,
    "CLASSIFICATION_TYPE": "U",
    "NORAD_CAT_ID": 54169,
    "ELEMENT_SET_NO": 999,
    "REV_AT_EPOCH": 16793,
    "BSTAR": 0.00012748000000000002,
    "MEAN_MOTION_DOT": 1.741e-05,
    "MEAN_MOTION_DDOT": 0.0,
    "TLE_LINE1": "1 54169U 22141N   25314.91813403  .00001741  00000+0  12748-3 0  9996",
    "TLE_LINE2": "2 54169  53.2176 176.8541 0001136  86.6729 273.4393 15.08826856167938",
    "COMMENT": "Grouped by shell and plane from TLE"
  },
  {
    "OBJECT_NAME": "STARLINK-5155",
    "OBJECT_ID": "22141P",
    "EPOCH": "2025-11-11T00:46:27.622560",
    "MEAN_MOTION": 15.08842928,
    "ECCENTRICITY": 0.0001424,
    "INCLINATION": 53.2159,
    "RA_OF_ASC_NODE": 176.8459,
    "ARG_OF_PERICENTER": 88.9601,
    "MEAN_ANOMALY": 271.1555,
    "EPHEMERIS_TYPE": 0,
    "CLASSIFICATION_TYPE": "U",
    "NORAD_CAT_ID": 54170,
    "ELEMENT_SET_NO": 999,
    "REV_AT_EPOCH": 16794,
    "BSTAR": 0.0001177,
    "MEAN_MOTION_DOT": 1.586e-05,
    "MEAN_MOTION_DDOT": 0.0,
    "TLE_LINE1": "1 54170U 22141P   25315.03226415  .00001586  00000+0  11770-3 0  9994",
    "TLE_LINE2": "2 54170  53.2159 176.8459 0001424  88.9601 271.1555 15.08842928167947",
    "COMMENT": "Grouped by shell and plane from TLE"
  },
  {
    "OBJECT_NAME": "STARLINK-5117",
    "OBJECT_ID": "22141R",
    "EPOCH": "2025-11-11T00:35:51.269280",
    "MEAN_MOTION": 15.08865906,
    "ECCENTRICITY": 0.0001005,
    "INCLINATION": 53.2154,
    "RA_OF_ASC_NODE": 176.801,
    "ARG_OF_PERICENTER": 88.8252,
    "MEAN_ANOMALY": 271.2855,
    "EPHEMERIS_TYPE": 0,
    "CLASSIFICATION_TYPE": "U",
    "NORAD_CAT_ID": 54172,
    "ELEMENT_SET_NO": 999,
    "REV_AT_EPOCH": 16794,
    "BSTAR": 0.0004936,
    "MEAN_MOTION_DOT": 7.582e-05,
    "MEAN_MOTION_DDOT": 0.0,
    "TLE_LINE1": "1 54172U 22141R   25315.02489895  .00007582  00000+0  49360-3 0  9996",
    "TLE_LINE2": "2 54172  53.2154 176.8010 0001005  88.8252 271.2855 15.08865906167948",
    "COMMENT": "Grouped by shell and plane from TLE"
  },
  {
    "OBJECT_NAME": "STARLINK-5242",
    "OBJECT_ID": "22141S",
    "EPOCH": "2025-11-10T23:42:47.439648",
    "MEAN_MOTION": 15.08842345,
    "ECCENTRICITY": 0.0001469,
    "INCLINATION": 53.2143,
    "RA_OF_ASC_NODE": 176.5731,
    "ARG_OF_PERICENTER": 92.1574,
    "MEAN_ANOMALY": 267.9586,
    "EPHEMERIS_TYPE": 0,
    "CLASSIFICATION_TYPE": "U",
    "NORAD_CAT_ID": 54173,
    "ELEMENT_SET_NO": 999,
    "REV_AT_EPOCH": 16794,
    "BSTAR": 6.9175e-05,
    "MEAN_MOTION_DOT": 8.13e-06,
    "MEAN_MOTION_DDOT": 0.0,
    "TLE_LINE1": "1 54173U 22141S   25314.98804907  .00000813  00000+0  69175-4 0  9993",
    "TLE_LINE2": "2 54173  53.2143 176.5731 0001469  92.1574 267.9586 15.08842345167948",
    "COMMENT": "Grouped by shell and plane from TLE"
  },
  {
    "OBJECT_NAME": "STARLINK-5256",
    "OBJECT_ID": "22141U",
    "EPOCH": "2025-11-11T00:41:09.473568",
    "MEAN_MOTION": 15.0884064,
    "ECCENTRICITY": 0.0001685,
    "INCLINATION": 53.2138,
    "RA_OF_ASC_NODE": 176.8241,
    "ARG_OF_PERICENTER": 85.9172,
    "MEAN_ANOMALY": 274.2013,
    "EPHEMERIS_TYPE": 0,
    "CLASSIFICATION_TYPE": "U",
    "NORAD_CAT_ID": 54175,
    "ELEMENT_SET_NO": 999,
    "REV_AT_EPOCH": 16794,
    "BSTAR": 7.3437e-05,
    "MEAN_MOTION_DOT": 8.81e-06,
    "MEAN_MOTION_DDOT": 0.0,
    "TLE_LINE1": "1 54175U 22141U   25315.02858187  .00000881  00000+0  73437-4 0  9991",
    "TLE_LINE2": "2 54175  53.2138 176.8241 0001685  85.9172 274.2013 15.08840640167949",
    "COMMENT": "Grouped by shell and plane from TLE"
  },
  {
    "OBJECT_NAME": "STARLINK-5154",
    "OBJECT_ID": "22141V",
    "EPOCH": "2025-11-11T00:19:55.947936",
    "MEAN_MOTION": 15.08842313,
    "ECCENTRICITY": 0.0001357,
    "INCLINATION": 53.2152,
    "RA_OF_ASC_NODE": 176.7326,
    "ARG_OF_PERICENTER": 89.9708,
    "MEAN_ANOMALY": 270.144,
    "EPHEMERIS_TYPE": 0,
    "CLASSIFICATION_TYPE": "U",
    "NORAD_CAT_ID": 54176,
    "ELEMENT_SET_NO": 999,
    "REV_AT_EPOCH": 16794,
    "BSTAR": 0.00013787,
    "MEAN_MOTION_DOT": 1.907e-05,
    "MEAN_MOTION_DDOT": 0.0,
    "TLE_LINE1": "1 54176U 22141V   25315.01384199  .00001907  00000+0  13787-3 0  9999",
    "TLE_LINE2": "2 54176  53.2152 176.7326 0001357  89.9708 270.1440 15.08842313167942",
    "COMMENT": "Grouped by shell and plane from TLE"
  },
  {
    "OBJECT_NAME": "STARLINK-5186",
    "OBJECT_ID": "22141W",
    "EPOCH": "2025-11-11T00:30:33.668064",
    "MEAN_MOTION": 15.08816658,
    "ECCENTRICITY": 0.0001363,
    "INCLINATION": 53.2151,
    "RA_OF_ASC_NODE": 176.7787,
    "ARG_OF_PERICENTER": 90.8497,
    "MEAN_ANOMALY": 269.2652,
    "EPHEMERIS_TYPE": 0,
    "CLASSIFICATION_TYPE": "U",
    "NORAD_CAT_ID": 54177,
    "ELEMENT_SET_NO": 999,
    "REV_AT_EPOCH": 16794,
    "BSTAR": 0.00014163,
    "MEAN_MOTION_DOT": 1.965e-05,
    "MEAN_MOTION_DDOT": 0.0,
    "TLE_LINE1": "1 54177U 22141W   25315.02122301  .00001965  00000+0  14163-3 0  9999",
    "TLE_LINE2": "2 54177  53.2151 176.7787 0001363  90.8497 269.2652 15.08816658167943",
    "COMMENT": "Grouped by shell and plane from TLE"
  },
  {
    "OBJECT_NAME": "STARLINK-5164",
    "OBJECT_ID": "22141X",
    "EPOCH": "2025-11-10T23:58:42.056832",
    "MEAN_MOTION": 15.08848778,
    "ECCENTRICITY": 0.0001431,
    "INCLINATION": 53.213,
    "RA_OF_ASC_NODE": 176.6176,
    "ARG_OF_PERICENTER": 83.9775,
    "MEAN_ANOMALY": 276.138,
    "EPHEMERIS_TYPE": 0,
    "CLASSIFICATION_TYPE": "U",
    "NORAD_CAT_ID": 54178,
    "ELEMENT_SET_NO": 999,
    "REV_AT_EPOCH": 16794,
    "BSTAR": 0.0,
    "MEAN_MOTION_DOT": -2.96e-06,
    "MEAN_MOTION_DDOT": 0.0,
    "TLE_LINE1": "1 54178U 22141X   25314.99909788 -.00000296  00000+0 -52163-6 0  9990",
    "TLE_LINE2": "2 54178  53.2130 176.6176 0001431  83.9775 276.1380 15.08848778167943",
    "COMMENT": "Grouped by shell and plane from TLE"
  },
  {
    "OBJECT_NAME": "STARLINK-5122",
    "OBJECT_ID": "22141Y",
    "EPOCH": "2025-11-11T00:25:14.013120",
    "MEAN_MOTION": 15.08845279,
    "ECCENTRICITY": 0.0001044,
    "INCLINATION": 53.2169,
    "RA_OF_ASC_NODE": 176.7565,
    "ARG_OF_PERICENTER": 87.4712,
    "MEAN_ANOMALY": 272.64,
    "EPHEMERIS_TYPE": 0,
    "CLASSIFICATION_TYPE": "U",
    "NORAD_CAT_ID": 54179,
    "ELEMENT_SET_NO": 999,
    "REV_AT_EPOCH": 16794,
    "BSTAR": 0.00010410999999999999,
    "MEAN_MOTION_DOT": 1.37e-05,
    "MEAN_MOTION_DDOT": 0.0,
    "TLE_LINE1": "1 54179U 22141Y   25315.01752330  .00001370  00000+0  10411-3 0  9993",
    "TLE_LINE2": "2 54179  53.2169 176.7565 0001044  87.4712 272.6400 15.08845279167946",
    "COMMENT": "Grouped by shell and plane from TLE"
  },
  {
    "OBJECT_NAME": "STARLINK-5228",
    "OBJECT_ID": "22141Z",
    "EPOCH": "2025-11-10T23:53:25.109664",
    "MEAN_MOTION": 15.08835201,
    "ECCENTRICITY": 0.0001207,
    "INCLINATION": 53.2172,
    "RA_OF_ASC_NODE": 176.6144,
    "ARG_OF_PERICENTER": 89.9349,
    "MEAN_ANOMALY": 270.1781,
    "EPHEMERIS_TYPE": 0,
    "CLASSIFICATION_TYPE": "U",
    "NORAD_CAT_ID": 54180,
    "ELEMENT_SET_NO": 999,
    "REV_AT_EPOCH": 16794,
    "BSTAR": 6.8106e-05,
    "MEAN_MOTION_DOT": 7.96e-06,
    "MEAN_MOTION_DDOT": 0.0,
    "TLE_LINE1": "1 54180U 22141Z   25314.99542951  .00000796  00000+0  68106-4 0  9993",
    "TLE_LINE2": "2 54180  53.2172 176.6144 0001207  89.9349 270.1781 15.08835201167947",
    "COMMENT": "Grouped by shell and plane from TLE"
  }
]